[{"OBJECT_NAME":"STARLINK-30249","OBJECT_ID":"2023-119S","EPOCH":"2026-03-09T22:00:01.999584","MEAN_MOTION":15.22731923,"ECCENTRICITY":0.0001613,"INCLINATION":43.0001,"RA_OF_ASC_NODE":79.6364,"ARG_OF_PERICENTER":251.0445,"MEAN_ANOMALY":294.4503,"EPHEMERIS_TYPE":0,"CLASSIFICATION_TYPE":"U","NORAD_CAT_ID":57618,"ELEMENT_SET_NO":999,"REV_AT_EPOCH":578,"BSTAR":0.044527608,"MEAN_MOTION_DOT":0.01150324,"MEAN_MOTION_DDOT":0},{"OBJECT_NAME":"OBSERVER-1A","OBJECT_ID":"2023-174BV","EPOCH":"2026-03-09T23:21:50.564160","MEAN_MOTION":15.36182735,"ECCENTRICITY":0.00094995,"INCLINATION":97.3975,"RA_OF_ASC_NODE":152.077,"ARG_OF_PERICENTER":145.4591,"MEAN_ANOMALY":214.7271,"EPHEMERIS_TYPE":0,"CLASSIFICATION_TYPE":"U","NORAD_CAT_ID":58323,"ELEMENT_SET_NO":999,"REV_AT_EPOCH":12996,"BSTAR":0.00045031382,"MEAN_MOTION_DOT":0.00015832,"MEAN_MOTION_DDOT":0}]
